{"type":"FeatureCollection","features":[{"type":"Feature","geometry":{"type":"Point","coordinates":[12.453387,41.903282]},"properties":{"name":"Vatican City","country":"Vatican","population":832}},{"type":"Feature","geometry":{"type":"Point","coordinates":[12.44177,43.936096]},"properties":{"name":"San Marino","country":"San Marino","population":29579}},{"type":"Feature","geometry":{"type":"Point","coordinates":[9.51667,47.133724]},"properties":{"name":"Vaduz","country":"Liechtenstein","population":36281}},{"type":"Feature","geometry":{"type":"Point","coordinates":[6.130003,49.61166]},"properties":{"name":"Luxembourg","country":"Luxembourg","population":107260}},{"type":"Feature","geometry":{"type":"Point","coordinates":[158.149974,6.916644]},"properties":{"name":"Palikir","country":"Federated States of Micronesia","population":4645}},{"type":"Feature","geometry":{"type":"Point","coordinates":[171.38,7.103004]},"properties":{"name":"Majuro","country":"Marshall Islands","population":25400}},{"type":"Feature","geometry":{"type":"Point","coordinates":[179.216647,-8.516652]},"properties":{"name":"Funafuti","country":"Tuvalu","population":4749}},{"type":"Feature","geometry":{"type":"Point","coordinates":[134.626549,7.487396]},"properties":{"name":"Melekeok","country":"Palau","population":7026}},{"type":"Feature","geometry":{"type":"Point","coordinates":[7.406913,43.739646]},"properties":{"name":"Monaco","country":"Monaco","population":36371}},{"type":"Feature","geometry":{"type":"Point","coordinates":[173.017571,1.338188]},"properties":{"name":"Tarawa","country":"Kiribati","population":28802}},{"type":"Feature","geometry":{"type":"Point","coordinates":[43.240244,-11.704158]},"properties":{"name":"Moroni","country":"Comoros","population":128698}},{"type":"Feature","geometry":{"type":"Point","coordinates":[1.526594,42.510753]},"properties":{"name":"Andorra","country":"Andorra","population":53998}},{"type":"Feature","geometry":{"type":"Point","coordinates":[-61.517031,10.651997]},"properties":{"name":"Port-of-Spain","country":"Trinidad and Tobago","population":294934}},{"type":"Feature","geometry":{"type":"Point","coordinates":[30.058586,-1.951644]},"properties":{"name":"Kigali","country":"Rwanda","population":860000}},{"type":"Feature","geometry":{"type":"Point","coordinates":[31.133335,-26.316651]},"properties":{"name":"Mbabane","country":"eSwatini","population":90138}},{"type":"Feature","geometry":{"type":"Point","coordinates":[14.514969,46.055288]},"properties":{"name":"Ljubljana","country":"Slovenia","population":314807}},{"type":"Feature","geometry":{"type":"Point","coordinates":[17.116981,48.150018]},"properties":{"name":"Bratislava","country":"Slovakia","population":423737}},{"type":"Feature","geometry":{"type":"Point","coordinates":[51.532968,25.286556]},"properties":{"name":"Doha","country":"Qatar","population":1450000}},{"type":"Feature","geometry":{"type":"Point","coordinates":[19.266307,42.465972]},"properties":{"name":"Podgorica","country":"Montenegro","population":145850}},{"type":"Feature","geometry":{"type":"Point","coordinates":[7.466976,46.916683]},"properties":{"name":"Bern","country":"Switzerland","population":275329}},{"type":"Feature","geometry":{"type":"Point","coordinates":[21.165984,42.66671]},"properties":{"name":"Pristina","country":"Kosovo","population":465186}},{"type":"Feature","geometry":{"type":"Point","coordinates":[-61.387013,15.301016]},"properties":{"name":"Roseau","country":"Dominica","population":23336}},{"type":"Feature","geometry":{"type":"Point","coordinates":[43.148002,11.595014]},"properties":{"name":"Djibouti","country":"Djibouti","population":923000}},{"type":"Feature","geometry":{"type":"Point","coordinates":[-16.591701,13.453876]},"properties":{"name":"Banjul","country":"The Gambia","population":43094}},{"type":"Feature","geometry":{"type":"Point","coordinates":[21.433461,42.000006]},"properties":{"name":"Skopje","country":"North Macedonia","population":494087}},{"type":"Feature","geometry":{"type":"Point","coordinates":[-59.616527,13.102003]},"properties":{"name":"Bridgetown","country":"Barbados","population":191152}},{"type":"Feature","geometry":{"type":"Point","coordinates":[29.360006,-3.376087]},"properties":{"name":"Bujumbura","country":"Burundi","population":331700}},{"type":"Feature","geometry":{"type":"Point","coordinates":[-61.220236,13.155756]},"properties":{"name":"Kingstown","country":"Saint Vincent and the Grenadines","population":49485}},{"type":"Feature","geometry":{"type":"Point","coordinates":[-60.992875,14.007875]},"properties":{"name":"Castries","country":"Saint Lucia","population":37963}},{"type":"Feature","geometry":{"type":"Point","coordinates":[-62.717009,17.302031]},"properties":{"name":"Basseterre","country":"Saint Kitts and Nevis","population":21887}},{"type":"Feature","geometry":{"type":"Point","coordinates":[57.499994,-20.166639]},"properties":{"name":"Port Louis","country":"Mauritius","population":595491}},{"type":"Feature","geometry":{"type":"Point","coordinates":[-61.741643,12.052633]},"properties":{"name":"Saint George's","country":"Grenada","population":33734}},{"type":"Feature","geometry":{"type":"Point","coordinates":[50.583052,26.236136]},"properties":{"name":"Manama","country":"Bahrain","population":563920}},{"type":"Feature","geometry":{"type":"Point","coordinates":[-61.850034,17.118036]},"properties":{"name":"Saint John's","country":"Antigua and Barbuda","population":35499}},{"type":"Feature","geometry":{"type":"Point","coordinates":[-56.186823,-34.905376]},"properties":{"name":"Montevideo","country":"Uruguay","population":1513000}},{"type":"Feature","geometry":{"type":"Point","coordinates":[1.220811,6.133883]},"properties":{"name":"Lom\u00e9","country":"Togo","population":1452000}},{"type":"Feature","geometry":{"type":"Point","coordinates":[10.179678,36.802778]},"properties":{"name":"Tunis","country":"Tunisia","population":2412500}},{"type":"Feature","geometry":{"type":"Point","coordinates":[54.366593,24.466684]},"properties":{"name":"Abu Dhabi","country":"United Arab Emirates","population":603492}},{"type":"Feature","geometry":{"type":"Point","coordinates":[58.383299,37.949995]},"properties":{"name":"Ashgabat","country":"Turkmenistan","population":727700}},{"type":"Feature","geometry":{"type":"Point","coordinates":[28.281382,-15.414698]},"properties":{"name":"Lusaka","country":"Zambia","population":1328000}},{"type":"Feature","geometry":{"type":"Point","coordinates":[31.042764,-17.815844]},"properties":{"name":"Harare","country":"Zimbabwe","population":1572000}},{"type":"Feature","geometry":{"type":"Point","coordinates":[125.579456,-8.559388]},"properties":{"name":"Dili","country":"East Timor","population":234331}},{"type":"Feature","geometry":{"type":"Point","coordinates":[168.316641,-17.73335]},"properties":{"name":"Port Vila","country":"Vanuatu","population":44040}},{"type":"Feature","geometry":{"type":"Point","coordinates":[-87.219475,14.103991]},"properties":{"name":"Tegucigalpa","country":"Honduras","population":946000}},{"type":"Feature","geometry":{"type":"Point","coordinates":[-58.167029,6.801974]},"properties":{"name":"Georgetown","country":"Guyana","population":264350}},{"type":"Feature","geometry":{"type":"Point","coordinates":[-21.936546,64.143459]},"properties":{"name":"Reykjav\u00edk","country":"Iceland","population":166212}},{"type":"Feature","geometry":{"type":"Point","coordinates":[-72.33798,18.54297]},"properties":{"name":"Port-au-Prince","country":"Haiti","population":1998000}},{"type":"Feature","geometry":{"type":"Point","coordinates":[32.581378,0.318605]},"properties":{"name":"Kampala","country":"Uganda","population":1420000}},{"type":"Feature","geometry":{"type":"Point","coordinates":[-55.167031,5.83503]},"properties":{"name":"Paramaribo","country":"Suriname","population":254169}},{"type":"Feature","geometry":{"type":"Point","coordinates":[2.11471,13.518652]},"properties":{"name":"Niamey","country":"Niger","population":915000}},{"type":"Feature","geometry":{"type":"Point","coordinates":[68.773879,38.560035]},"properties":{"name":"Dushanbe","country":"Tajikistan","population":1086244}},{"type":"Feature","geometry":{"type":"Point","coordinates":[-57.625834,-25.290671]},"properties":{"name":"Asunci\u00f3n","country":"Paraguay","population":1870000}},{"type":"Feature","geometry":{"type":"Point","coordinates":[-86.270437,12.154962]},"properties":{"name":"Managua","country":"Nicaragua","population":920000}},{"type":"Feature","geometry":{"type":"Point","coordinates":[-13.236162,8.471957]},"properties":{"name":"Freetown","country":"Sierra Leone","population":827000}},{"type":"Feature","geometry":{"type":"Point","coordinates":[73.08063,33.689368]},"properties":{"name":"Islamabad","country":"Pakistan","population":780000}},{"type":"Feature","geometry":{"type":"Point","coordinates":[85.314696,27.718638]},"properties":{"name":"Kathmandu","country":"Nepal","population":895000}},{"type":"Feature","geometry":{"type":"Point","coordinates":[26.229913,-29.119994]},"properties":{"name":"Bloemfontein","country":"South Africa","population":463064}},{"type":"Feature","geometry":{"type":"Point","coordinates":[28.227483,-25.704975]},"properties":{"name":"Pretoria","country":"South Africa","population":1338000}},{"type":"Feature","geometry":{"type":"Point","coordinates":[147.192504,-9.464708]},"properties":{"name":"Port Moresby","country":"Papua New Guinea","population":283733}},{"type":"Feature","geometry":{"type":"Point","coordinates":[159.949766,-9.437994]},"properties":{"name":"Honiara","country":"Solomon Islands","population":76328}},{"type":"Feature","geometry":{"type":"Point","coordinates":[-79.534983,8.969963]},"properties":{"name":"Panama City","country":"Panama","population":1281000}},{"type":"Feature","geometry":{"type":"Point","coordinates":[-6.836408,34.025307]},"properties":{"name":"Rabat","country":"Morocco","population":1705000}},{"type":"Feature","geometry":{"type":"Point","coordinates":[28.857711,47.005024]},"properties":{"name":"Chi\u0219in\u0103u","country":"Moldova","population":688134}},{"type":"Feature","geometry":{"type":"Point","coordinates":[32.587217,-25.953332]},"properties":{"name":"Maputo","country":"Mozambique","population":1446000}},{"type":"Feature","geometry":{"type":"Point","coordinates":[45.364732,2.068627]},"properties":{"name":"Mogadishu","country":"Somalia","population":1100000}},{"type":"Feature","geometry":{"type":"Point","coordinates":[58.378311,23.585179]},"properties":{"name":"Muscat","country":"Oman","population":734697}},{"type":"Feature","geometry":{"type":"Point","coordinates":[79.857751,6.931966]},"properties":{"name":"Colombo","country":"Sri Lanka","population":217000}},{"type":"Feature","geometry":{"type":"Point","coordinates":[106.91467,47.918619]},"properties":{"name":"Ulaanbaatar","country":"Mongolia","population":885000}},{"type":"Feature","geometry":{"type":"Point","coordinates":[17.083546,-22.570006]},"properties":{"name":"Windhoek","country":"Namibia","population":268132}},{"type":"Feature","geometry":{"type":"Point","coordinates":[7.489505,9.05462]},"properties":{"name":"Abuja","country":"Nigeria","population":1576000}},{"type":"Feature","geometry":{"type":"Point","coordinates":[-15.598361,11.865024]},"properties":{"name":"Bissau","country":"Guinea Bissau","population":403339}},{"type":"Feature","geometry":{"type":"Point","coordinates":[35.931354,31.951971]},"properties":{"name":"Amman","country":"Jordan","population":1060000}},{"type":"Feature","geometry":{"type":"Point","coordinates":[25.316635,54.683366]},"properties":{"name":"Vilnius","country":"Lithuania","population":542366}},{"type":"Feature","geometry":{"type":"Point","coordinates":[24.099965,56.950024]},"properties":{"name":"Riga","country":"Latvia","population":742572}},{"type":"Feature","geometry":{"type":"Point","coordinates":[74.583258,42.875025]},"properties":{"name":"Bishkek","country":"Kyrgyzstan","population":837000}},{"type":"Feature","geometry":{"type":"Point","coordinates":[27.483273,-29.316674]},"properties":{"name":"Maseru","country":"Lesotho","population":361324}},{"type":"Feature","geometry":{"type":"Point","coordinates":[47.514678,-18.914691]},"properties":{"name":"Antananarivo","country":"Madagascar","population":1697000}},{"type":"Feature","geometry":{"type":"Point","coordinates":[-78.501997,-0.213042]},"properties":{"name":"Quito","country":"Ecuador","population":1701000}},{"type":"Feature","geometry":{"type":"Point","coordinates":[-84.078814,9.930371]},"properties":{"name":"San Jos\u00e9","country":"Costa Rica","population":1284000}},{"type":"Feature","geometry":{"type":"Point","coordinates":[-89.215576,13.70328]},"properties":{"name":"San Salvador","country":"El Salvador","population":1433000}},{"type":"Feature","geometry":{"type":"Point","coordinates":[-76.767434,17.977077]},"properties":{"name":"Kingston","country":"Jamaica","population":937700}},{"type":"Feature","geometry":{"type":"Point","coordinates":[15.047202,12.115042]},"properties":{"name":"N'Djamena","country":"Chad","population":989000}},{"type":"Feature","geometry":{"type":"Point","coordinates":[8.783278,3.750015]},"properties":{"name":"Malabo","country":"Equatorial Guinea","population":155963}},{"type":"Feature","geometry":{"type":"Point","coordinates":[38.933324,15.333339]},"properties":{"name":"Asmara","country":"Eritrea","population":620802}},{"type":"Feature","geometry":{"type":"Point","coordinates":[15.999995,45.800007]},"properties":{"name":"Zagreb","country":"Croatia","population":722526}},{"type":"Feature","geometry":{"type":"Point","coordinates":[24.728041,59.433877]},"properties":{"name":"Tallinn","country":"Estonia","population":394024}},{"type":"Feature","geometry":{"type":"Point","coordinates":[33.783302,-13.983295]},"properties":{"name":"Lilongwe","country":"Malawi","population":646750}},{"type":"Feature","geometry":{"type":"Point","coordinates":[-90.528911,14.623081]},"properties":{"name":"Guatemala City","country":"Guatemala","population":1024000}},{"type":"Feature","geometry":{"type":"Point","coordinates":[9.457965,0.385389]},"properties":{"name":"Libreville","country":"Gabon","population":578156}},{"type":"Feature","geometry":{"type":"Point","coordinates":[178.441707,-18.133016]},"properties":{"name":"Suva","country":"Fiji","population":175399}},{"type":"Feature","geometry":{"type":"Point","coordinates":[-15.97534,18.086427]},"properties":{"name":"Nouakchott","country":"Mauritania","population":742144}},{"type":"Feature","geometry":{"type":"Point","coordinates":[-8.001985,12.65196]},"properties":{"name":"Bamako","country":"Mali","population":1494000}},{"type":"Feature","geometry":{"type":"Point","coordinates":[35.507762,33.873921]},"properties":{"name":"Beirut","country":"Lebanon","population":1846000}},{"type":"Feature","geometry":{"type":"Point","coordinates":[44.78885,41.726956]},"properties":{"name":"Tbilisi","country":"Georgia","population":1100000}},{"type":"Feature","geometry":{"type":"Point","coordinates":[71.427774,51.181125]},"properties":{"name":"Nur-Sultan","country":"Kazakhstan","population":345604}},{"type":"Feature","geometry":{"type":"Point","coordinates":[102.59998,17.966693]},"properties":{"name":"Vientiane","country":"Laos","population":754000}},{"type":"Feature","geometry":{"type":"Point","coordinates":[15.282744,-4.25724]},"properties":{"name":"Brazzaville","country":"Congo (Brazzaville)","population":1355000}},{"type":"Feature","geometry":{"type":"Point","coordinates":[-13.682181,9.533469]},"properties":{"name":"Conakry","country":"Guinea","population":1494000}},{"type":"Feature","geometry":{"type":"Point","coordinates":[-5.275503,6.818381]},"properties":{"name":"Yamoussoukro","country":"Ivory Coast","population":206499}},{"type":"Feature","geometry":{"type":"Point","coordinates":[-75.701961,45.418643]},"properties":{"name":"Ottawa","country":"Canada","population":1145000}},{"type":"Feature","geometry":{"type":"Point","coordinates":[20.466045,44.820591]},"properties":{"name":"Belgrade","country":"Serbia","population":1099000}},{"type":"Feature","geometry":{"type":"Point","coordinates":[114.933284,4.883331]},"properties":{"name":"Bandar Seri Begawan","country":"Brunei","population":296500}},{"type":"Feature","geometry":{"type":"Point","coordinates":[-65.259516,-19.040971]},"properties":{"name":"Sucre","country":"Bolivia","population":224838}},{"type":"Feature","geometry":{"type":"Point","coordinates":[-88.767073,17.252033]},"properties":{"name":"Belmopan","country":"Belize","population":15220}},{"type":"Feature","geometry":{"type":"Point","coordinates":[18.558288,4.366644]},"properties":{"name":"Bangui","country":"Central African Republic","population":831925}},{"type":"Feature","geometry":{"type":"Point","coordinates":[11.514705,3.868647]},"properties":{"name":"Yaound\u00e9","country":"Cameroon","population":1611000}},{"type":"Feature","geometry":{"type":"Point","coordinates":[19.818883,41.327541]},"properties":{"name":"Tirana","country":"Albania","population":895350}},{"type":"Feature","geometry":{"type":"Point","coordinates":[44.511606,40.183097]},"properties":{"name":"Yerevan","country":"Armenia","population":1102000}},{"type":"Feature","geometry":{"type":"Point","coordinates":[49.860271,40.397218]},"properties":{"name":"Baku","country":"Azerbaijan","population":2122300}},{"type":"Feature","geometry":{"type":"Point","coordinates":[104.914689,11.551976]},"properties":{"name":"Phnom Penh","country":"Cambodia","population":1466000}},{"type":"Feature","geometry":{"type":"Point","coordinates":[-68.151931,-16.496028]},"properties":{"name":"La Paz","country":"Bolivia","population":1590000}},{"type":"Feature","geometry":{"type":"Point","coordinates":[2.404355,6.36298]},"properties":{"name":"Cotonou","country":"Benin","population":762000}},{"type":"Feature","geometry":{"type":"Point","coordinates":[23.314708,42.685295]},"properties":{"name":"Sofia","country":"Bulgaria","population":1185000}},{"type":"Feature","geometry":{"type":"Point","coordinates":[27.564681,53.901923]},"properties":{"name":"Minsk","country":"Belarus","population":1805000}},{"type":"Feature","geometry":{"type":"Point","coordinates":[89.639014,27.472986]},"properties":{"name":"Thimphu","country":"Bhutan","population":98676}},{"type":"Feature","geometry":{"type":"Point","coordinates":[25.911948,-24.646314]},"properties":{"name":"Gaborone","country":"Botswana","population":208411}},{"type":"Feature","geometry":{"type":"Point","coordinates":[149.129026,-35.283029]},"properties":{"name":"Canberra","country":"Australia","population":327700}},{"type":"Feature","geometry":{"type":"Point","coordinates":[-1.52667,12.372262]},"properties":{"name":"Ouagadougou","country":"Burkina Faso","population":1149000}},{"type":"Feature","geometry":{"type":"Point","coordinates":[18.383002,43.850022]},"properties":{"name":"Sarajevo","country":"Bosnia and Herzegovina","population":696731}},{"type":"Feature","geometry":{"type":"Point","coordinates":[96.116673,19.768503]},"properties":{"name":"Naypyidaw","country":"Myanmar","population":930000}},{"type":"Feature","geometry":{"type":"Point","coordinates":[-175.220564,-21.138512]},"properties":{"name":"Nuku'alofa","country":"Tonga","population":42620}},{"type":"Feature","geometry":{"type":"Point","coordinates":[44.06531,9.560022]},"properties":{"name":"Hargeisa","country":"Somaliland","population":477876}},{"type":"Feature","geometry":{"type":"Point","coordinates":[55.44999,-4.616632]},"properties":{"name":"Victoria","country":"Seychelles","population":33576}},{"type":"Feature","geometry":{"type":"Point","coordinates":[6.72965,0.337466]},"properties":{"name":"S\u00e3o Tom\u00e9","country":"Sao Tome and Principe","population":88219}},{"type":"Feature","geometry":{"type":"Point","coordinates":[-171.768599,-13.835715]},"properties":{"name":"Apia","country":"Samoa","population":61916}},{"type":"Feature","geometry":{"type":"Point","coordinates":[14.514711,35.899732]},"properties":{"name":"Valletta","country":"Malta","population":368250}},{"type":"Feature","geometry":{"type":"Point","coordinates":[73.508901,4.172037]},"properties":{"name":"Mal\u00e9","country":"Maldives","population":112927}},{"type":"Feature","geometry":{"type":"Point","coordinates":[35.206626,31.778408]},"properties":{"name":"Jerusalem","country":"Israel","population":1029300}},{"type":"Feature","geometry":{"type":"Point","coordinates":[-23.516689,14.916698]},"properties":{"name":"Praia","country":"Cape Verde","population":113364}},{"type":"Feature","geometry":{"type":"Point","coordinates":[-77.350044,25.08339]},"properties":{"name":"Nassau","country":"The Bahamas","population":227940}},{"type":"Feature","geometry":{"type":"Point","coordinates":[33.366635,35.166677]},"properties":{"name":"Nicosia","country":"Cyprus","population":224300}},{"type":"Feature","geometry":{"type":"Point","coordinates":[174.777201,-41.292068]},"properties":{"name":"Wellington","country":"New Zealand","population":393400}},{"type":"Feature","geometry":{"type":"Point","coordinates":[105.848068,21.035273]},"properties":{"name":"Hanoi","country":"Vietnam","population":4378000}},{"type":"Feature","geometry":{"type":"Point","coordinates":[32.862446,39.929184]},"properties":{"name":"Ankara","country":"Turkey","population":3716000}},{"type":"Feature","geometry":{"type":"Point","coordinates":[19.081375,47.501952]},"properties":{"name":"Budapest","country":"Hungary","population":1679000}},{"type":"Feature","geometry":{"type":"Point","coordinates":[44.204648,15.356679]},"properties":{"name":"Sanaa","country":"Yemen","population":2008000}},{"type":"Feature","geometry":{"type":"Point","coordinates":[26.098001,44.435318]},"properties":{"name":"Bucharest","country":"Romania","population":1942000}},{"type":"Feature","geometry":{"type":"Point","coordinates":[36.29805,33.50198]},"properties":{"name":"Damascus","country":"Syria","population":2466000}},{"type":"Feature","geometry":{"type":"Point","coordinates":[-9.146812,38.724669]},"properties":{"name":"Lisbon","country":"Portugal","population":2812000}},{"type":"Feature","geometry":{"type":"Point","coordinates":[32.532233,15.590024]},"properties":{"name":"Khartoum","country":"Sudan","population":4754000}},{"type":"Feature","geometry":{"type":"Point","coordinates":[10.748033,59.918636]},"properties":{"name":"Oslo","country":"Norway","population":835000}},{"type":"Feature","geometry":{"type":"Point","coordinates":[21.005347,52.230872]},"properties":{"name":"Warsaw","country":"Poland","population":1707000}},{"type":"Feature","geometry":{"type":"Point","coordinates":[125.752745,39.021385]},"properties":{"name":"Pyongyang","country":"North Korea","population":3300000}},{"type":"Feature","geometry":{"type":"Point","coordinates":[39.266396,-6.798067]},"properties":{"name":"Dar es Salaam","country":"Tanzania","population":2930000}},{"type":"Feature","geometry":{"type":"Point","coordinates":[-6.25698,53.346731]},"properties":{"name":"Dublin","country":"Ireland","population":1059000}},{"type":"Feature","geometry":{"type":"Point","coordinates":[-10.79966,6.314582]},"properties":{"name":"Monrovia","country":"Liberia","population":1041000}},{"type":"Feature","geometry":{"type":"Point","coordinates":[101.688699,3.139797]},"properties":{"name":"Kuala Lumpur","country":"Malaysia","population":1448000}},{"type":"Feature","geometry":{"type":"Point","coordinates":[-82.366128,23.133905]},"properties":{"name":"Havana","country":"Cuba","population":2174000}},{"type":"Feature","geometry":{"type":"Point","coordinates":[14.422939,50.086967]},"properties":{"name":"Prague","country":"Czechia","population":1162000}},{"type":"Feature","geometry":{"type":"Point","coordinates":[47.976355,29.371664]},"properties":{"name":"Kuwait City","country":"Kuwait","population":2063000}},{"type":"Feature","geometry":{"type":"Point","coordinates":[-69.929742,18.470745]},"properties":{"name":"Santo Domingo","country":"Dominican Republic","population":2154000}},{"type":"Feature","geometry":{"type":"Point","coordinates":[-0.218662,5.55198]},"properties":{"name":"Accra","country":"Ghana","population":2121000}},{"type":"Feature","geometry":{"type":"Point","coordinates":[13.180012,32.8925]},"properties":{"name":"Tripoli","country":"Libya","population":2189000}},{"type":"Feature","geometry":{"type":"Point","coordinates":[24.932457,60.163804]},"properties":{"name":"Helsinki","country":"Finland","population":1115000}},{"type":"Feature","geometry":{"type":"Point","coordinates":[12.56154,55.68051]},"properties":{"name":"K\u00f8benhavn","country":"Denmark","population":1085000}},{"type":"Feature","geometry":{"type":"Point","coordinates":[-4.020207,5.323126]},"properties":{"name":"Abidjan","country":"Ivory Coast","population":3802000}},{"type":"Feature","geometry":{"type":"Point","coordinates":[-47.917998,-15.781394]},"properties":{"name":"Bras\u00edlia","country":"Brazil","population":3716996}},{"type":"Feature","geometry":{"type":"Point","coordinates":[4.331371,50.835263]},"properties":{"name":"Brussels","country":"Belgium","population":1743000}},{"type":"Feature","geometry":{"type":"Point","coordinates":[90.406634,23.725006]},"properties":{"name":"Dhaka","country":"Bangladesh","population":12797394}},{"type":"Feature","geometry":{"type":"Point","coordinates":[13.232481,-8.83634]},"properties":{"name":"Luanda","country":"Angola","population":5172900}},{"type":"Feature","geometry":{"type":"Point","coordinates":[3.048607,36.765011]},"properties":{"name":"Algiers","country":"Algeria","population":3354000}},{"type":"Feature","geometry":{"type":"Point","coordinates":[-66.918983,10.502944]},"properties":{"name":"Caracas","country":"Venezuela","population":2985000}},{"type":"Feature","geometry":{"type":"Point","coordinates":[30.514682,50.435313]},"properties":{"name":"Kyiv","country":"Ukraine","population":2709000}},{"type":"Feature","geometry":{"type":"Point","coordinates":[69.268823,41.303828]},"properties":{"name":"Tashkent","country":"Uzbekistan","population":2184000}},{"type":"Feature","geometry":{"type":"Point","coordinates":[-3.685297,40.401972]},"properties":{"name":"Madrid","country":"Spain","population":5567000}},{"type":"Feature","geometry":{"type":"Point","coordinates":[18.0663,59.324127]},"properties":{"name":"Stockholm","country":"Sweden","population":1264000}},{"type":"Feature","geometry":{"type":"Point","coordinates":[100.514699,13.751945]},"properties":{"name":"Bangkok","country":"Thailand","population":6704000}},{"type":"Feature","geometry":{"type":"Point","coordinates":[-77.052008,-12.046067]},"properties":{"name":"Lima","country":"Peru","population":8012000}},{"type":"Feature","geometry":{"type":"Point","coordinates":[-17.475076,14.717778]},"properties":{"name":"Dakar","country":"Senegal","population":2604000}},{"type":"Feature","geometry":{"type":"Point","coordinates":[4.914694,52.351914]},"properties":{"name":"Amsterdam","country":"Netherlands","population":1031000}},{"type":"Feature","geometry":{"type":"Point","coordinates":[126.997785,37.568295]},"properties":{"name":"Seoul","country":"South Korea","population":9796000}},{"type":"Feature","geometry":{"type":"Point","coordinates":[120.980271,14.606105]},"properties":{"name":"Manila","country":"Philippines","population":11100000}},{"type":"Feature","geometry":{"type":"Point","coordinates":[13.399603,52.523764]},"properties":{"name":"Berlin","country":"Germany","population":3406000}},{"type":"Feature","geometry":{"type":"Point","coordinates":[15.313026,-4.327778]},"properties":{"name":"Kinshasa","country":"Congo (Kinshasa)","population":7843000}},{"type":"Feature","geometry":{"type":"Point","coordinates":[77.19998,28.600023]},"properties":{"name":"New Delhi","country":"India","population":317797}},{"type":"Feature","geometry":{"type":"Point","coordinates":[23.731375,37.985272]},"properties":{"name":"Athens","country":"Greece","population":3242000}},{"type":"Feature","geometry":{"type":"Point","coordinates":[44.391923,33.340594]},"properties":{"name":"Baghdad","country":"Iraq","population":5054000}},{"type":"Feature","geometry":{"type":"Point","coordinates":[38.698059,9.035256]},"properties":{"name":"Addis Ababa","country":"Ethiopia","population":3100000}},{"type":"Feature","geometry":{"type":"Point","coordinates":[51.422398,35.673889]},"properties":{"name":"Tehran","country":"Iran","population":7873000}},{"type":"Feature","geometry":{"type":"Point","coordinates":[-58.432513,-34.610715]},"properties":{"name":"Buenos Aires","country":"Argentina","population":12795000}},{"type":"Feature","geometry":{"type":"Point","coordinates":[69.181314,34.518636]},"properties":{"name":"Kabul","country":"Afghanistan","population":3277000}},{"type":"Feature","geometry":{"type":"Point","coordinates":[16.364693,48.201961]},"properties":{"name":"Vienna","country":"Austria","population":2400000}},{"type":"Feature","geometry":{"type":"Point","coordinates":[121.568333,25.035833]},"properties":{"name":"Taipei","country":"Taiwan","population":6900273}},{"type":"Feature","geometry":{"type":"Point","coordinates":[-77.011364,38.901495]},"properties":{"name":"Washington,  D.C.","country":"United States of America","population":4338000}},{"type":"Feature","geometry":{"type":"Point","coordinates":[-0.118668,51.501941]},"properties":{"name":"London","country":"United Kingdom","population":8567000}},{"type":"Feature","geometry":{"type":"Point","coordinates":[46.720487,24.634497]},"properties":{"name":"Riyadh","country":"Saudi Arabia","population":4465000}},{"type":"Feature","geometry":{"type":"Point","coordinates":[18.433042,-33.918065]},"properties":{"name":"Cape Town","country":"South Africa","population":3215000}},{"type":"Feature","geometry":{"type":"Point","coordinates":[37.613577,55.75411]},"properties":{"name":"Moscow","country":"Russia","population":10452000}},{"type":"Feature","geometry":{"type":"Point","coordinates":[-99.132934,19.444388]},"properties":{"name":"Mexico City","country":"Mexico","population":19028000}},{"type":"Feature","geometry":{"type":"Point","coordinates":[12.481313,41.897902]},"properties":{"name":"Rome","country":"Italy","population":3339000}},{"type":"Feature","geometry":{"type":"Point","coordinates":[116.394201,39.90172]},"properties":{"name":"Beijing","country":"China","population":11106000}},{"type":"Feature","geometry":{"type":"Point","coordinates":[36.814711,-1.281401]},"properties":{"name":"Nairobi","country":"Kenya","population":3010000}},{"type":"Feature","geometry":{"type":"Point","coordinates":[106.827492,-6.172472]},"properties":{"name":"Jakarta","country":"Indonesia","population":9125000}},{"type":"Feature","geometry":{"type":"Point","coordinates":[-74.08529,4.598369]},"properties":{"name":"Bogota","country":"Colombia","population":7772000}},{"type":"Feature","geometry":{"type":"Point","coordinates":[31.248022,30.051906]},"properties":{"name":"Cairo","country":"Egypt","population":11893000}},{"type":"Feature","geometry":{"type":"Point","coordinates":[139.749462,35.686963]},"properties":{"name":"Tokyo","country":"Japan","population":35676000}},{"type":"Feature","geometry":{"type":"Point","coordinates":[2.352992,48.858092]},"properties":{"name":"Paris","country":"France","population":9904000}},{"type":"Feature","geometry":{"type":"Point","coordinates":[-70.650504,-33.440205]},"properties":{"name":"Santiago","country":"Chile","population":5720000}},{"type":"Feature","geometry":{"type":"Point","coordinates":[103.853875,1.294979]},"properties":{"name":"Singapore","country":"Singapore","population":5183700}}]}